{"type": "FeatureCollection", "features": [ {"type": "Feature", "properties": {"norad_id": 33867, "name": "IRIDIUM 33 DEB", "group": "iridium-33-debris", "lat": 30.602017228065055, "lon": -6.988883337902848, "alt_km": 367.53574157199273, "timestamp": "2025-12-11T07:02:24.115170+00:00", "meta": {"OBJECT_NAME": "IRIDIUM 33 DEB", "OBJECT_ID": "1997-051AL", "EPOCH": "2025-12-10T10:56:50.694720", "MEAN_MOTION": 15.63354376, "ECCENTRICITY": 0.00131668, "INCLINATION": 86.364, "RA_OF_ASC_NODE": 351.2878, "ARG_OF_PERICENTER": 91.1844, "MEAN_ANOMALY": 269.0932, "EPHEMERIS_TYPE": 0, "CLASSIFICATION_TYPE": "U", "NORAD_CAT_ID": 33867, "ELEMENT_SET_NO": 999, "REV_AT_EPOCH": 89475, "BSTAR": 0.0092111059, "MEAN_MOTION_DOT": 0.00931891, "MEAN_MOTION_DDOT": 0}, "tle": {"line1": "1 33867U 97051AL  25344.45614230  .00931891  00000+0  92111-2 0  9998", "line2": "2 33867  86.3640 351.2878 0013166  91.1844 269.0932 15.63354376894751"}}, "geometry": {"type": "Point", "coordinates": [-6.988883337902848, 30.602017228065055]}}, {"type": "Feature", "properties": {"norad_id": 33870, "name": "IRIDIUM 33 DEB", "group": "iridium-33-debris", "lat": 2.326306423703141, "lon": 59.02820875429182, "alt_km": 757.1240538416214, "timestamp": "2025-12-11T07:02:24.115181+00:00", "meta": {"OBJECT_NAME": "IRIDIUM 33 DEB", "OBJECT_ID": "1997-051AP", "EPOCH": "2025-12-10T06:24:18.912384", "MEAN_MOTION": 14.45830234, "ECCENTRICITY": 0.0021205, "INCLINATION": 86.3744, "RA_OF_ASC_NODE": 59.3205, "ARG_OF_PERICENTER": 186.1349, "MEAN_ANOMALY": 237.0541, "EPHEMERIS_TYPE": 0, "CLASSIFICATION_TYPE": "U", "NORAD_CAT_ID": 33870, "ELEMENT_SET_NO": 999, "REV_AT_EPOCH": 88101, "BSTAR": 0.0012181, "MEAN_MOTION_DOT": 4.353e-05, "MEAN_MOTION_DDOT": 0}, "tle": {"line1": "1 33870U 97051AP  25344.26688556  .00004353  00000+0  12181-2 0  9996", "line2": "2 33870  86.3744  59.3205 0021205 186.1349 237.0541 14.45830234881015"}}, "geometry": {"type": "Point", "coordinates": [59.02820875429182, 2.326306423703141]}}, {"type": "Feature", "properties": {"norad_id": 33881, "name": "IRIDIUM 33 DEB", "group": "iridium-33-debris", "lat": 4.914133565258407, "lon": -72.9405821170207, "alt_km": 663.4269237620902, "timestamp": "2025-12-11T07:02:24.115191+00:00", "meta": {"OBJECT_NAME": "IRIDIUM 33 DEB", "OBJECT_ID": "1997-051BA", "EPOCH": "2025-12-10T19:23:39.783840", "MEAN_MOTION": 14.56512734, "ECCENTRICITY": 0.00614461, "INCLINATION": 86.3863, "RA_OF_ASC_NODE": 107.5816, "ARG_OF_PERICENTER": 180.8783, "MEAN_ANOMALY": 331.4545, "EPHEMERIS_TYPE": 0, "CLASSIFICATION_TYPE": "U", "NORAD_CAT_ID": 33881, "ELEMENT_SET_NO": 999, "REV_AT_EPOCH": 87472, "BSTAR": 0.0031554403, "MEAN_MOTION_DOT": 0.00014437, "MEAN_MOTION_DDOT": 0}, "tle": {"line1": "1 33881U 97051BA  25344.80809935  .00014437  00000+0  31554-2 0  9993", "line2": "2 33881  86.3863 107.5816 0061446 180.8783 331.4545 14.56512734874724"}}, "geometry": {"type": "Point", "coordinates": [-72.9405821170207, 4.914133565258407]}}, {"type": "Feature", "properties": {"norad_id": 33884, "name": "IRIDIUM 33 DEB", "group": "iridium-33-debris", "lat": 13.198276263450927, "lon": 11.324164610270987, "alt_km": 633.8294518330758, "timestamp": "2025-12-11T07:02:24.115202+00:00", "meta": {"OBJECT_NAME": "IRIDIUM 33 DEB", "OBJECT_ID": "1997-051BD", "EPOCH": "2025-12-10T20:22:59.024064", "MEAN_MOTION": 14.77367318, "ECCENTRICITY": 0.00099038, "INCLINATION": 86.3696, "RA_OF_ASC_NODE": 10.6714, "ARG_OF_PERICENTER": 331.0132, "MEAN_ANOMALY": 202.1515, "EPHEMERIS_TYPE": 0, "CLASSIFICATION_TYPE": "U", "NORAD_CAT_ID": 33884, "ELEMENT_SET_NO": 999, "REV_AT_EPOCH": 88819, "BSTAR": 0.0022524314, "MEAN_MOTION_DOT": 0.00016065, "MEAN_MOTION_DDOT": 0}, "tle": {"line1": "1 33884U 97051BD  25344.84929426  .00016065  00000+0  22524-2 0  9994", "line2": "2 33884  86.3696  10.6714 0009903 331.0132 202.1515 14.77367318888196"}}, "geometry": {"type": "Point", "coordinates": [11.324164610270987, 13.198276263450927]}}, {"type": "Feature", "properties": {"norad_id": 33886, "name": "IRIDIUM 33 DEB", "group": "iridium-33-debris", "lat": 25.950887576714557, "lon": -113.92658893706935, "alt_km": 771.3549029870437, "timestamp": "2025-12-11T07:02:24.115213+00:00", "meta": {"OBJECT_NAME": "IRIDIUM 33 DEB", "OBJECT_ID": "1997-051BF", "EPOCH": "2025-12-10T15:51:52.243776", "MEAN_MOTION": 14.36048248, "ECCENTRICITY": 0.00121905, "INCLINATION": 86.3829, "RA_OF_ASC_NODE": 68.1036, "ARG_OF_PERICENTER": 249.8631, "MEAN_ANOMALY": 237.318, "EPHEMERIS_TYPE": 0, "CLASSIFICATION_TYPE": "U", "NORAD_CAT_ID": 33886, "ELEMENT_SET_NO": 999, "REV_AT_EPOCH": 88022, "BSTAR": 0.00032444005, "MEAN_MOTION_DOT": 9.63e-06, "MEAN_MOTION_DDOT": 0}, "tle": {"line1": "1 33886U 97051BF  25344.66102134  .00000963  00000+0  32444-3 0  9998", "line2": "2 33886  86.3829  68.1036 0012190 249.8631 237.3180 14.36048248880220"}}, "geometry": {"type": "Point", "coordinates": [-113.92658893706935, 25.950887576714557]}}, {"type": "Feature", "properties": {"norad_id": 33887, "name": "IRIDIUM 33 DEB", "group": "iridium-33-debris", "lat": 83.09741912114123, "lon": 36.283240185703455, "alt_km": 762.9384350364016, "timestamp": "2025-12-11T07:02:24.115224+00:00", "meta": {"OBJECT_NAME": "IRIDIUM 33 DEB", "OBJECT_ID": "1997-051BG", "EPOCH": "2025-12-10T19:47:20.923872", "MEAN_MOTION": 14.37218364, "ECCENTRICITY": 0.00042909, "INCLINATION": 86.3045, "RA_OF_ASC_NODE": 4.2177, "ARG_OF_PERICENTER": 235.2487, "MEAN_ANOMALY": 304.9926, "EPHEMERIS_TYPE": 0, "CLASSIFICATION_TYPE": "U", "NORAD_CAT_ID": 33887, "ELEMENT_SET_NO": 999, "REV_AT_EPOCH": 88137, "BSTAR": 0.00022078837, "MEAN_MOTION_DOT": 6.77e-06, "MEAN_MOTION_DDOT": 0}, "tle": {"line1": "1 33887U 97051BG  25344.82454773  .00000677  00000+0  22079-3 0  9991", "line2": "2 33887  86.3045   4.2177 0004290 235.2487 304.9926 14.37218364881373"}}, "geometry": {"type": "Point", "coordinates": [36.283240185703455, 83.09741912114123]}}, {"type": "Feature", "properties": {"norad_id": 33953, "name": "IRIDIUM 33 DEB", "group": "iridium-33-debris", "lat": -25.891009437317678, "lon": -123.83410706137215, "alt_km": 716.183554591661, "timestamp": "2025-12-11T07:02:24.115234+00:00", "meta": {"OBJECT_NAME": "IRIDIUM 33 DEB", "OBJECT_ID": "1997-051BN", "EPOCH": "2025-12-09T23:18:17.054208", "MEAN_MOTION": 14.5527898, "ECCENTRICITY": 0.00184582, "INCLINATION": 86.384, "RA_OF_ASC_NODE": 54.9808, "ARG_OF_PERICENTER": 111.2598, "MEAN_ANOMALY": 11.2257, "EPHEMERIS_TYPE": 0, "CLASSIFICATION_TYPE": "U", "NORAD_CAT_ID": 33953, "ELEMENT_SET_NO": 999, "REV_AT_EPOCH": 88263, "BSTAR": 0.0016887129, "MEAN_MOTION_DOT": 7.353e-05, "MEAN_MOTION_DDOT": 0}, "tle": {"line1": "1 33953U 97051BN  25343.97103072  .00007353  00000+0  16887-2 0  9990", "line2": "2 33953  86.3840  54.9808 0018458 111.2598  11.2257 14.55278980882635"}}, "geometry": {"type": "Point", "coordinates": [-123.83410706137215, -25.891009437317678]}}, {"type": "Feature", "properties": {"norad_id": 33960, "name": "IRIDIUM 33 DEB", "group": "iridium-33-debris", "lat": -34.86313730728091, "lon": 112.81279087036931, "alt_km": 624.3741541290001, "timestamp": "2025-12-11T07:02:24.115245+00:00", "meta": {"OBJECT_NAME": "IRIDIUM 33 DEB", "OBJECT_ID": "1997-051BV", "EPOCH": "2025-12-10T14:42:23.035104", "MEAN_MOTION": 14.85002414, "ECCENTRICITY": 0.0007488, "INCLINATION": 86.2533, "RA_OF_ASC_NODE": 290.517, "ARG_OF_PERICENTER": 65.6834, "MEAN_ANOMALY": 113.1281, "EPHEMERIS_TYPE": 0, "CLASSIFICATION_TYPE": "U", "NORAD_CAT_ID": 33960, "ELEMENT_SET_NO": 999, "REV_AT_EPOCH": 88835, "BSTAR": 0.0050643, "MEAN_MOTION_DOT": 0.00043449, "MEAN_MOTION_DDOT": 0}, "tle": {"line1": "1 33960U 97051BV  25344.61276661  .00043449  00000+0  50643-2 0  9999", "line2": "2 33960  86.2533 290.5170 0007488  65.6834 113.1281 14.85002414888351"}}, "geometry": {"type": "Point", "coordinates": [112.81279087036931, -34.86313730728091]}}, {"type": "Feature", "properties": {"norad_id": 33966, "name": "IRIDIUM 33 DEB", "group": "iridium-33-debris", "lat": 1.327490247480756, "lon": 46.73168244680793, "alt_km": 734.9096423664596, "timestamp": "2025-12-11T07:02:24.115256+00:00", "meta": {"OBJECT_NAME": "IRIDIUM 33 DEB", "OBJECT_ID": "1997-051CB", "EPOCH": "2025-12-10T21:54:59.590080", "MEAN_MOTION": 14.49582013, "ECCENTRICITY": 0.00071912, "INCLINATION": 86.3922, "RA_OF_ASC_NODE": 46.811, "ARG_OF_PERICENTER": 194.3278, "MEAN_ANOMALY": 344.5911, "EPHEMERIS_TYPE": 0, "CLASSIFICATION_TYPE": "U", "NORAD_CAT_ID": 33966, "ELEMENT_SET_NO": 999, "REV_AT_EPOCH": 88415, "BSTAR": 0.00082457788, "MEAN_MOTION_DOT": 3.184e-05, "MEAN_MOTION_DDOT": 0}, "tle": {"line1": "1 33966U 97051CB  25344.91318970  .00003184  00000+0  82458-3 0  9990", "line2": "2 33966  86.3922  46.8110 0007191 194.3278 344.5911 14.49582013884151"}}, "geometry": {"type": "Point", "coordinates": [46.73168244680793, 1.327490247480756]}}, {"type": "Feature", "properties": {"norad_id": 34071, "name": "IRIDIUM 33 DEB", "group": "iridium-33-debris", "lat": 68.0806265996446, "lon": 27.595465440807, "alt_km": 715.7302562919895, "timestamp": "2025-12-11T07:02:24.115267+00:00", "meta": {"OBJECT_NAME": "IRIDIUM 33 DEB", "OBJECT_ID": "1997-051CE", "EPOCH": "2025-12-10T12:30:01.391616", "MEAN_MOTION": 14.49448907, "ECCENTRICITY": 0.000987, "INCLINATION": 86.3457, "RA_OF_ASC_NODE": 18.7926, "ARG_OF_PERICENTER": 113.5501, "MEAN_ANOMALY": 246.6741, "EPHEMERIS_TYPE": 0, "CLASSIFICATION_TYPE": "U", "NORAD_CAT_ID": 34071, "ELEMENT_SET_NO": 999, "REV_AT_EPOCH": 88302, "BSTAR": 0.00087238, "MEAN_MOTION_DOT": 3.36e-05, "MEAN_MOTION_DDOT": 0}, "tle": {"line1": "1 34071U 97051CE  25344.52084944  .00003360  00000+0  87238-3 0  9993", "line2": "2 34071  86.3457  18.7926 0009870 113.5501 246.6741 14.49448907883024"}}, "geometry": {"type": "Point", "coordinates": [27.595465440807, 68.0806265996446]}}]}